LUR-1                   
1 60506U 24149AQ  26068.79566301  .00009121  00000+0  32985-3 0  9998
2 60506  97.3790 148.4255 0002777 309.1571  50.9421 15.28658648 86785
STARLINK-36485          
1 67312U 26002H   26068.03819997  .00047246  00000+0  17153-2 0  9998
2 67312  43.0020 328.5703 0001813 280.2114  79.8533 15.27581687 10982
